[{"OBJECT_NAME":"GEESAT-2 07","OBJECT_ID":"2024-023G","EPOCH":"2026-03-09T22:31:13.906560","MEAN_MOTION":14.82879957,"ECCENTRICITY":0.00101218,"INCLINATION":50.0054,"RA_OF_ASC_NODE":94.2079,"ARG_OF_PERICENTER":37.2132,"MEAN_ANOMALY":322.9506,"EPHEMERIS_TYPE":0,"CLASSIFICATION_TYPE":"U","NORAD_CAT_ID":58911,"ELEMENT_SET_NO":999,"REV_AT_EPOCH":11418,"BSTAR":0.00018036206,"MEAN_MOTION_DOT":1.251e-5,"MEAN_MOTION_DDOT":0},{"OBJECT_NAME":"FENGYUN 1C DEB","OBJECT_ID":"1999-025MR","EPOCH":"2026-03-09T19:11:05.176608","MEAN_MOTION":14.81279619,"ECCENTRICITY":0.00451485,"INCLINATION":98.8992,"RA_OF_ASC_NODE":95.1328,"ARG_OF_PERICENTER":125.1084,"MEAN_ANOMALY":290.0057,"EPHEMERIS_TYPE":0,"CLASSIFICATION_TYPE":"U","NORAD_CAT_ID":30016,"ELEMENT_SET_NO":999,"REV_AT_EPOCH":742,"BSTAR":0.0017113544,"MEAN_MOTION_DOT":0.0001354,"MEAN_MOTION_DDOT":0}]
